[{"OBJECT_NAME":"STARLINK-3505","OBJECT_ID":"2022-016AN","EPOCH":"2026-03-09T23:12:12.822048","MEAN_MOTION":15.0883057,"ECCENTRICITY":0.00011272,"INCLINATION":53.218,"RA_OF_ASC_NODE":307.8876,"ARG_OF_PERICENTER":80.6377,"MEAN_ANOMALY":279.4742,"EPHEMERIS_TYPE":0,"CLASSIFICATION_TYPE":"U","NORAD_CAT_ID":51750,"ELEMENT_SET_NO":999,"REV_AT_EPOCH":22374,"BSTAR":3.6530284e-5,"MEAN_MOTION_DOT":2.93e-6,"MEAN_MOTION_DDOT":0},{"OBJECT_NAME":"LEMUR-2-THERMORAPTOR","OBJECT_ID":"2025-061D","EPOCH":"2026-03-09T21:59:50.013312","MEAN_MOTION":15.13256334,"ECCENTRICITY":0.00176188,"INCLINATION":97.562,"RA_OF_ASC_NODE":45.6468,"ARG_OF_PERICENTER":235.5571,"MEAN_ANOMALY":124.3996,"EPHEMERIS_TYPE":0,"CLASSIFICATION_TYPE":"U","NORAD_CAT_ID":63354,"ELEMENT_SET_NO":999,"REV_AT_EPOCH":5259,"BSTAR":0.00030402789,"MEAN_MOTION_DOT":5.359e-5,"MEAN_MOTION_DDOT":0}]
